{"type": "FeatureCollection", "features": [ {"type": "Feature", "properties": {"norad_id": 66978, "name": "STARLINK-35787", "group": "last-30-days", "lat": 42.40905355992178, "lon": -163.0992652597483, "alt_km": 326.0794020703779, "timestamp": "2025-12-20T16:47:35.026065+00:00", "meta": {"OBJECT_NAME": "STARLINK-35787", "OBJECT_ID": "2025-288V", "EPOCH": "2025-12-20T12:00:02.000160", "MEAN_MOTION": 15.80235587, "ECCENTRICITY": 0.0001597, "INCLINATION": 43.0019, "RA_OF_ASC_NODE": 119.5501, "ARG_OF_PERICENTER": 278.5209, "MEAN_ANOMALY": 105.9398, "EPHEMERIS_TYPE": 0, "CLASSIFICATION_TYPE": "U", "NORAD_CAT_ID": 66978, "ELEMENT_SET_NO": 999, "REV_AT_EPOCH": 307, "BSTAR": -0.0093793, "MEAN_MOTION_DOT": -0.01590051, "MEAN_MOTION_DDOT": 0}, "tle": {"line1": "1 66978U 25288V   25354.50002315 -.01590051  00000+0 -93793-2 0  9991", "line2": "2 66978  43.0019 119.5501 0001597 278.5209 105.9398 15.80235587  3071"}}, "geometry": {"type": "Point", "coordinates": [-163.0992652597483, 42.40905355992178]}}, {"type": "Feature", "properties": {"norad_id": 66979, "name": "STARLINK-36107", "group": "last-30-days", "lat": 42.68981737636066, "lon": -159.84406290781328, "alt_km": 326.22980525814546, "timestamp": "2025-12-20T16:47:35.026075+00:00", "meta": {"OBJECT_NAME": "STARLINK-36107", "OBJECT_ID": "2025-288W", "EPOCH": "2025-12-20T12:00:02.000160", "MEAN_MOTION": 15.8015622, "ECCENTRICITY": 0.0001496, "INCLINATION": 43.002, "RA_OF_ASC_NODE": 119.5438, "ARG_OF_PERICENTER": 277.3871, "MEAN_ANOMALY": 109.5494, "EPHEMERIS_TYPE": 0, "CLASSIFICATION_TYPE": "U", "NORAD_CAT_ID": 66979, "ELEMENT_SET_NO": 999, "REV_AT_EPOCH": 307, "BSTAR": -0.0094733, "MEAN_MOTION_DOT": -0.01598689, "MEAN_MOTION_DDOT": 0}, "tle": {"line1": "1 66979U 25288W   25354.50002315 -.01598689  00000+0 -94733-2 0  9992", "line2": "2 66979  43.0020 119.5438 0001496 277.3871 109.5494 15.80156220  3076"}}, "geometry": {"type": "Point", "coordinates": [-159.84406290781328, 42.68981737636066]}}, {"type": "Feature", "properties": {"norad_id": 66980, "name": "STARLINK-36086", "group": "last-30-days", "lat": 42.86407708895766, "lon": -156.8609178128036, "alt_km": 326.4430842345819, "timestamp": "2025-12-20T16:47:35.026086+00:00", "meta": {"OBJECT_NAME": "STARLINK-36086", "OBJECT_ID": "2025-288X", "EPOCH": "2025-12-20T12:00:02.000160", "MEAN_MOTION": 15.80114239, "ECCENTRICITY": 0.0001609, "INCLINATION": 43.0019, "RA_OF_ASC_NODE": 119.538, "ARG_OF_PERICENTER": 272.4879, "MEAN_ANOMALY": 116.6807, "EPHEMERIS_TYPE": 0, "CLASSIFICATION_TYPE": "U", "NORAD_CAT_ID": 66980, "ELEMENT_SET_NO": 999, "REV_AT_EPOCH": 307, "BSTAR": -0.0095667, "MEAN_MOTION_DOT": -0.0160974, "MEAN_MOTION_DDOT": 0}, "tle": {"line1": "1 66980U 25288X   25354.50002315 -.01609740  00000+0 -95667-2 0  9992", "line2": "2 66980  43.0019 119.5380 0001609 272.4879 116.6807 15.80114239  3073"}}, "geometry": {"type": "Point", "coordinates": [-156.8609178128036, 42.86407708895766]}}, {"type": "Feature", "properties": {"norad_id": 66981, "name": "STARLINK-36142", "group": "last-30-days", "lat": 42.95828507119303, "lon": -153.97913969760506, "alt_km": 326.4357588761677, "timestamp": "2025-12-20T16:47:35.026096+00:00", "meta": {"OBJECT_NAME": "STARLINK-36142", "OBJECT_ID": "2025-288Y", "EPOCH": "2025-12-20T12:00:02.000160", "MEAN_MOTION": 15.80084391, "ECCENTRICITY": 0.0001496, "INCLINATION": 43.0021, "RA_OF_ASC_NODE": 119.5327, "ARG_OF_PERICENTER": 276.5033, "MEAN_ANOMALY": 114.8004, "EPHEMERIS_TYPE": 0, "CLASSIFICATION_TYPE": "U", "NORAD_CAT_ID": 66981, "ELEMENT_SET_NO": 999, "REV_AT_EPOCH": 307, "BSTAR": -0.0096026, "MEAN_MOTION_DOT": -0.01612952, "MEAN_MOTION_DDOT": 0}, "tle": {"line1": "1 66981U 25288Y   25354.50002315 -.01612952  00000+0 -96026-2 0  9992", "line2": "2 66981  43.0021 119.5327 0001496 276.5033 114.8004 15.80084391  3073"}}, "geometry": {"type": "Point", "coordinates": [-153.97913969760506, 42.95828507119303]}}, {"type": "Feature", "properties": {"norad_id": 66982, "name": "STARLINK-36113", "group": "last-30-days", "lat": 42.9786426325753, "lon": -151.048558199183, "alt_km": 326.5234959949221, "timestamp": "2025-12-20T16:47:35.026105+00:00", "meta": {"OBJECT_NAME": "STARLINK-36113", "OBJECT_ID": "2025-288Z", "EPOCH": "2025-12-20T12:00:02.000160", "MEAN_MOTION": 15.80052545, "ECCENTRICITY": 0.0001438, "INCLINATION": 43.0014, "RA_OF_ASC_NODE": 119.5272, "ARG_OF_PERICENTER": 267.6986, "MEAN_ANOMALY": 125.7803, "EPHEMERIS_TYPE": 0, "CLASSIFICATION_TYPE": "U", "NORAD_CAT_ID": 66982, "ELEMENT_SET_NO": 999, "REV_AT_EPOCH": 307, "BSTAR": -0.0097322, "MEAN_MOTION_DOT": -0.01629686, "MEAN_MOTION_DDOT": 0}, "tle": {"line1": "1 66982U 25288Z   25354.50002315 -.01629686  00000+0 -97322-2 0  9995", "line2": "2 66982  43.0014 119.5272 0001438 267.6986 125.7803 15.80052545  3073"}}, "geometry": {"type": "Point", "coordinates": [-151.048558199183, 42.9786426325753]}}, {"type": "Feature", "properties": {"norad_id": 66983, "name": "STARLINK-36145", "group": "last-30-days", "lat": 42.79359472056614, "lon": -145.15094937970423, "alt_km": 326.8630392315963, "timestamp": "2025-12-20T16:47:35.026115+00:00", "meta": {"OBJECT_NAME": "STARLINK-36145", "OBJECT_ID": "2025-288AA", "EPOCH": "2025-12-20T12:00:02.000160", "MEAN_MOTION": 15.79973344, "ECCENTRICITY": 0.0001533, "INCLINATION": 43.0018, "RA_OF_ASC_NODE": 119.5162, "ARG_OF_PERICENTER": 273.6012, "MEAN_ANOMALY": 124.263, "EPHEMERIS_TYPE": 0, "CLASSIFICATION_TYPE": "U", "NORAD_CAT_ID": 66983, "ELEMENT_SET_NO": 999, "REV_AT_EPOCH": 307, "BSTAR": -0.009867, "MEAN_MOTION_DOT": -0.01644053, "MEAN_MOTION_DDOT": 0}, "tle": {"line1": "1 66983U 25288AA  25354.50002315 -.01644053  00000+0 -98670-2 0  9998", "line2": "2 66983  43.0018 119.5162 0001533 273.6012 124.2630 15.79973344  3078"}}, "geometry": {"type": "Point", "coordinates": [-145.15094937970423, 42.79359472056614]}}, {"type": "Feature", "properties": {"norad_id": 66984, "name": "STARLINK-35591", "group": "last-30-days", "lat": 42.92355787169641, "lon": -148.07822367515237, "alt_km": 326.6077781193053, "timestamp": "2025-12-20T16:47:35.026125+00:00", "meta": {"OBJECT_NAME": "STARLINK-35591", "OBJECT_ID": "2025-288AB", "EPOCH": "2025-12-20T12:00:02.000160", "MEAN_MOTION": 15.80009348, "ECCENTRICITY": 0.0001366, "INCLINATION": 43.0016, "RA_OF_ASC_NODE": 119.5211, "ARG_OF_PERICENTER": 277.0094, "MEAN_ANOMALY": 118.6751, "EPHEMERIS_TYPE": 0, "CLASSIFICATION_TYPE": "U", "NORAD_CAT_ID": 66984, "ELEMENT_SET_NO": 999, "REV_AT_EPOCH": 307, "BSTAR": -0.0097835, "MEAN_MOTION_DOT": -0.01634226, "MEAN_MOTION_DDOT": 0}, "tle": {"line1": "1 66984U 25288AB  25354.50002315 -.01634226  00000+0 -97835-2 0  9992", "line2": "2 66984  43.0016 119.5211 0001366 277.0094 118.6751 15.80009348  3071"}}, "geometry": {"type": "Point", "coordinates": [-148.07822367515237, 42.92355787169641]}}, {"type": "Feature", "properties": {"norad_id": 66985, "name": "STARLINK-36103", "group": "last-30-days", "lat": 42.58106531686999, "lon": -142.14660215435754, "alt_km": 327.01411194230604, "timestamp": "2025-12-20T16:47:35.026137+00:00", "meta": {"OBJECT_NAME": "STARLINK-36103", "OBJECT_ID": "2025-288AC", "EPOCH": "2025-12-20T12:00:02.000160", "MEAN_MOTION": 15.79921853, "ECCENTRICITY": 0.0001471, "INCLINATION": 43.0017, "RA_OF_ASC_NODE": 119.5103, "ARG_OF_PERICENTER": 277.8903, "MEAN_ANOMALY": 122.2318, "EPHEMERIS_TYPE": 0, "CLASSIFICATION_TYPE": "U", "NORAD_CAT_ID": 66985, "ELEMENT_SET_NO": 999, "REV_AT_EPOCH": 307, "BSTAR": -0.0099635, "MEAN_MOTION_DOT": -0.01654473, "MEAN_MOTION_DDOT": 0}, "tle": {"line1": "1 66985U 25288AC  25354.50002315 -.01654473  00000+0 -99635-2 0  9999", "line2": "2 66985  43.0017 119.5103 0001471 277.8903 122.2318 15.79921853  3079"}}, "geometry": {"type": "Point", "coordinates": [-142.14660215435754, 42.58106531686999]}}, {"type": "Feature", "properties": {"norad_id": 66986, "name": "STARLINK-36135", "group": "last-30-days", "lat": 42.290778423685786, "lon": -139.17262568010838, "alt_km": 327.2001809309395, "timestamp": "2025-12-20T16:47:35.026147+00:00", "meta": {"OBJECT_NAME": "STARLINK-36135", "OBJECT_ID": "2025-288AD", "EPOCH": "2025-12-20T12:00:02.000160", "MEAN_MOTION": 15.79866774, "ECCENTRICITY": 0.0001431, "INCLINATION": 43.0014, "RA_OF_ASC_NODE": 119.5039, "ARG_OF_PERICENTER": 277.808, "MEAN_ANOMALY": 124.5714, "EPHEMERIS_TYPE": 0, "CLASSIFICATION_TYPE": "U", "NORAD_CAT_ID": 66986, "ELEMENT_SET_NO": 999, "REV_AT_EPOCH": 307, "BSTAR": -0.010043, "MEAN_MOTION_DOT": -0.01696289, "MEAN_MOTION_DDOT": 0}, "tle": {"line1": "1 66986U 25288AD  25354.50002315 -.01696289  00000+0 -10043-1 0  9996", "line2": "2 66986  43.0014 119.5039 0001431 277.8080 124.5714 15.79866774  3072"}}, "geometry": {"type": "Point", "coordinates": [-139.17262568010838, 42.290778423685786]}}, {"type": "Feature", "properties": {"norad_id": 66987, "name": "STARLINK-36147", "group": "last-30-days", "lat": 41.9418105212045, "lon": -136.3512217728141, "alt_km": 327.43155323049723, "timestamp": "2025-12-20T16:47:35.026159+00:00", "meta": {"OBJECT_NAME": "STARLINK-36147", "OBJECT_ID": "2025-288AE", "EPOCH": "2025-12-20T12:00:02.000160", "MEAN_MOTION": 15.7983457, "ECCENTRICITY": 0.000153, "INCLINATION": 43.0019, "RA_OF_ASC_NODE": 119.4991, "ARG_OF_PERICENTER": 281.4049, "MEAN_ANOMALY": 123.1218, "EPHEMERIS_TYPE": 0, "CLASSIFICATION_TYPE": "U", "NORAD_CAT_ID": 66987, "ELEMENT_SET_NO": 999, "REV_AT_EPOCH": 307, "BSTAR": -0.01015, "MEAN_MOTION_DOT": -0.01710148, "MEAN_MOTION_DDOT": 0}, "tle": {"line1": "1 66987U 25288AE  25354.50002315 -.01710148  00000+0 -10150-1 0  9997", "line2": "2 66987  43.0019 119.4991 0001530 281.4049 123.1218 15.79834570  3073"}}, "geometry": {"type": "Point", "coordinates": [-136.3512217728141, 41.9418105212045]}}]}